STARLINK-1741
1 26567C 20070AM  21325.16735821 -.00001609  00000-0 -10781-3 0  3254
2 26567  53.0546   2.4931 0001313  60.9990  33.3358 15.06402679    19
